{
  "norad_id": 68484,
  "name": "VINDLER 2.2",
  "history": [
    {
      "epoch": "2026-04-15T20:48:01.023264Z",
      "apogee_km": 594.0187570736498,
      "perigee_km": 590.501494683931,
      "latitude_deg": -7.544017280752015e-05,
      "longitude_deg": -90.91664608976647,
      "height_km": 596.4054447339643,
      "semi_major_axis_km": 6970.39712587879,
      "eccentricity": 0.0002523,
      "inclination_deg": 97.7576,
      "raan_deg": 65.1102,
      "arg_perigee_deg": 128.9871,
      "mean_anomaly_deg": 231.1572,
      "mean_motion_rev_day": 14.91820185
    },
    {
      "epoch": "2026-04-16T20:56:48.770880Z",
      "apogee_km": 594.0585136958671,
      "perigee_km": 590.4673636474627,
      "latitude_deg": -2.2641470192709125e-06,
      "longitude_deg": -93.11726797055314,
      "height_km": 596.3962830660068,
      "semi_major_axis_km": 6970.399938671664,
      "eccentricity": 0.0002576,
      "inclination_deg": 97.7576,
      "raan_deg": 66.1002,
      "arg_perigee_deg": 127.562,
      "mean_anomaly_deg": 232.5833,
      "mean_motion_rev_day": 14.91819282
    },
    {
      "epoch": "2026-04-17T21:05:35.807424Z",
      "apogee_km": 594.0596990448639,
      "perigee_km": 590.4207439126185,
      "latitude_deg": -5.734096702482804e-05,
      "longitude_deg": -95.31470222209411,
      "height_km": 596.3264643790923,
      "semi_major_axis_km": 6970.3772214787405,
      "eccentricity": 0.00026103,
      "inclination_deg": 97.7577,
      "raan_deg": 67.0904,
      "arg_perigee_deg": 125.1564,
      "mean_anomaly_deg": 234.9899,
      "mean_motion_rev_day": 14.91826575
    },
    {
      "epoch": "2026-04-21T13:37:48.344160Z",
      "apogee_km": 594.1694654978219,
      "perigee_km": 590.2758226006554,
      "latitude_deg": -2.472185040211613e-05,
      "longitude_deg": 16.627874313575262,
      "height_km": 596.2333791257661,
      "semi_major_axis_km": 6970.359644049238,
      "eccentricity": 0.0002793,
      "inclination_deg": 97.7581,
      "raan_deg": 70.7213,
      "arg_perigee_deg": 119.976,
      "mean_anomaly_deg": 240.1736,
      "mean_motion_rev_day": 14.91832218
    },
    {
      "epoch": "2026-04-22T00:53:54.121344Z",
      "apogee_km": 594.1773283376351,
      "perigee_km": 590.2583160424074,
      "latitude_deg": -1.8173277283712257e-05,
      "longitude_deg": -152.39677086019165,
      "height_km": 596.2120025938041,
      "semi_major_axis_km": 6970.354822190021,
      "eccentricity": 0.00028112,
      "inclination_deg": 97.7581,
      "raan_deg": 71.1835,
      "arg_perigee_deg": 119.2084,
      "mean_anomaly_deg": 240.9416,
      "mean_motion_rev_day": 14.91833766
    },
    {
      "epoch": "2026-04-22T21:49:28.920000Z",
      "apogee_km": 594.1070921541568,
      "perigee_km": 590.1800360843317,
      "latitude_deg": 6.701892526120269e-05,
      "longitude_deg": -106.2928928789621,
      "height_km": 596.1336558160409,
      "semi_major_axis_km": 6970.280564119244,
      "eccentricity": 0.0002817,
      "inclination_deg": 97.7582,
      "raan_deg": 72.0418,
      "arg_perigee_deg": 119.0064,
      "mean_anomaly_deg": 241.1438,
      "mean_motion_rev_day": 14.91857606
    },
    {
      "epoch": "2026-04-24T06:01:09.075072Z",
      "apogee_km": 594.1468215162477,
      "perigee_km": 590.1149397633708,
      "latitude_deg": -5.3487002858948035e-05,
      "longitude_deg": 130.78802780568856,
      "height_km": 596.0689504545937,
      "semi_major_axis_km": 6970.267880639809,
      "eccentricity": 0.00028922,
      "inclination_deg": 97.7583,
      "raan_deg": 73.3622,
      "arg_perigee_deg": 116.5259,
      "mean_anomaly_deg": 243.6256,
      "mean_motion_rev_day": 14.91861678
    },
    {
      "epoch": "2026-04-24T20:30:17.683776Z",
      "apogee_km": 593.6897394957996,
      "perigee_km": 589.552212370967,
      "latitude_deg": 5.383122543091555e-05,
      "longitude_deg": -86.49856445205955,
      "height_km": 595.5315806656653,
      "semi_major_axis_km": 6969.757975933383,
      "eccentricity": 0.00029682,
      "inclination_deg": 97.7582,
      "raan_deg": 73.9564,
      "arg_perigee_deg": 114.9557,
      "mean_anomaly_deg": 245.1971,
      "mean_motion_rev_day": 14.92025397
    },
    {
      "epoch": "2026-04-27T20:56:03.301152Z",
      "apogee_km": 593.7209308663414,
      "perigee_km": 589.4540655285446,
      "latitude_deg": 3.3289101304603126e-05,
      "longitude_deg": -92.94180020694715,
      "height_km": 595.3873271543655,
      "semi_major_axis_km": 6969.724498197443,
      "eccentricity": 0.0003061,
      "inclination_deg": 97.7581,
      "raan_deg": 76.9278,
      "arg_perigee_deg": 110.9377,
      "mean_anomaly_deg": 249.217,
      "mean_motion_rev_day": 14.92036147
    },
    {
      "epoch": "2026-04-28T21:04:38.125056Z",
      "apogee_km": 593.7496734406031,
      "perigee_km": 589.4019665834785,
      "latitude_deg": 2.1568803979883473e-05,
      "longitude_deg": -95.08781554228699,
      "height_km": 595.3418700417842,
      "semi_major_axis_km": 6969.7128200120405,
      "eccentricity": 0.0003119,
      "inclination_deg": 97.7583,
      "raan_deg": 77.9184,
      "arg_perigee_deg": 109.5872,
      "mean_anomaly_deg": 250.5684,
      "mean_motion_rev_day": 14.92039897
    },
    {
      "epoch": "2026-04-29T14:46:55.509600Z",
      "apogee_km": 593.783364077116,
      "perigee_km": 589.3464518425089,
      "latitude_deg": -1.7059735765597215e-05,
      "longitude_deg": -0.6609571566667218,
      "height_km": 595.3018418857116,
      "semi_major_axis_km": 6969.701907959812,
      "eccentricity": 0.0003183,
      "inclination_deg": 97.7585,
      "raan_deg": 78.6448,
      "arg_perigee_deg": 108.3878,
      "mean_anomaly_deg": 251.7687,
      "mean_motion_rev_day": 14.92043401
    },
    {
      "epoch": "2026-04-29T14:46:55.510464Z",
      "apogee_km": 593.7832246830767,
      "perigee_km": 589.3465912365473,
      "latitude_deg": -1.4905600705808272e-05,
      "longitude_deg": -0.6609610584184621,
      "height_km": 595.3017979068694,
      "semi_major_axis_km": 6969.701907959812,
      "eccentricity": 0.00031828,
      "inclination_deg": 97.7585,
      "raan_deg": 78.6448,
      "arg_perigee_deg": 108.3878,
      "mean_anomaly_deg": 251.7687,
      "mean_motion_rev_day": 14.92043401
    },
    {
      "epoch": "2026-05-02T08:45:38.890080Z",
      "apogee_km": 592.4053216587563,
      "perigee_km": 587.8884800342275,
      "latitude_deg": 8.450461943011941e-05,
      "longitude_deg": 89.65702493558155,
      "height_km": 593.2837374016382,
      "semi_major_axis_km": 6968.283900846492,
      "eccentricity": 0.0003241,
      "inclination_deg": 97.7594,
      "raan_deg": 81.3532,
      "arg_perigee_deg": 92.5296,
      "mean_anomaly_deg": 267.6295,
      "mean_motion_rev_day": 14.92498858
    },
    {
      "epoch": "2026-05-03T20:09:35.303616Z",
      "apogee_km": 592.2832375606386,
      "perigee_km": 588.0771612990629,
      "latitude_deg": 8.223141129602392e-06,
      "longitude_deg": -81.32831049490939,
      "height_km": 593.2063294631288,
      "semi_major_axis_km": 6968.317199429851,
      "eccentricity": 0.0003018,
      "inclination_deg": 97.7594,
      "raan_deg": 82.8067,
      "arg_perigee_deg": 89.6887,
      "mean_anomaly_deg": 270.4678,
      "mean_motion_rev_day": 14.9248816
    },
    {
      "epoch": "2026-05-04T17:04:38.612928Z",
      "apogee_km": 592.2685351865312,
      "perigee_km": 588.0764002107644,
      "latitude_deg": 4.4402231459380165e-05,
      "longitude_deg": -35.09226195091434,
      "height_km": 593.1376810157819,
      "semi_major_axis_km": 6968.3094676986475,
      "eccentricity": 0.0003008,
      "inclination_deg": 97.7596,
      "raan_deg": 83.6656,
      "arg_perigee_deg": 88.0221,
      "mean_anomaly_deg": 272.1343,
      "mean_motion_rev_day": 14.92490644
    },
    {
      "epoch": "2026-05-05T10:46:36.634368Z",
      "apogee_km": 592.2875721619021,
      "perigee_km": 588.0396960953367,
      "latitude_deg": 3.865777844453891e-06,
      "longitude_deg": 59.41589418134023,
      "height_km": 593.1024965779168,
      "semi_major_axis_km": 6968.300634128619,
      "eccentricity": 0.0003048,
      "inclination_deg": 97.7595,
      "raan_deg": 84.3924,
      "arg_perigee_deg": 87.3384,
      "mean_anomaly_deg": 272.8184,
      "mean_motion_rev_day": 14.92493482
    }
  ]
}